{
    "links": {
        "self": "http://www.neowsapp.com/rest/v1/neo/3659805?api_key=iIulBulltgU6a56xZRHN4H3l9WmuAYTsLGpBGhQ2"
    },
    "id": "3659805",
    "neo_reference_id": "3659805",
    "name": "(2014 BC33)",
    "designation": "2014 BC33",
    "nasa_jpl_url": "http://ssd.jpl.nasa.gov/sbdb.cgi?sstr=3659805",
    "absolute_magnitude_h": 23.7,
    "estimated_diameter": {
        "kilometers": {
            "estimated_diameter_min": 0.0483676488,
            "estimated_diameter_max": 0.1081533507
        },
        "meters": {
            "estimated_diameter_min": 48.3676488219,
            "estimated_diameter_max": 108.1533506775
        },
        "miles": {
            "estimated_diameter_min": 0.0300542543,
            "estimated_diameter_max": 0.0672033557
        },
        "feet": {
            "estimated_diameter_min": 158.6865169607,
            "estimated_diameter_max": 354.8338390368
        }
    },
    "is_potentially_hazardous_asteroid": false,
    "close_approach_data": [
        {
            "close_approach_date": "2000-12-25",
            "close_approach_date_full": "2000-Dec-25 06:26",
            "epoch_date_close_approach": 977725560000,
            "relative_velocity": {
                "kilometers_per_second": "10.0612954123",
                "kilometers_per_hour": "36220.6634843236",
                "miles_per_hour": "22506.1117078009"
            },
            "miss_distance": {
                "astronomical": "0.3804980151",
                "lunar": "148.0137278739",
                "kilometers": "56921692.598187837",
                "miles": "35369499.6750206706"
            },
            "orbiting_body": "Earth"
        },
        {
            "close_approach_date": "2014-01-07",
            "close_approach_date_full": "2014-Jan-07 23:58",
            "epoch_date_close_approach": 1389139080000,
            "relative_velocity": {
                "kilometers_per_second": "4.4736039302",
                "kilometers_per_hour": "16104.9741486596",
                "miles_per_hour": "10007.0046314268"
            },
            "miss_distance": {
                "astronomical": "0.1690242976",
                "lunar": "65.7504517664",
                "kilometers": "25285674.899206112",
                "miles": "15711789.8169918656"
            },
            "orbiting_body": "Earth"
        },
        {
            "close_approach_date": "2027-01-18",
            "close_approach_date_full": "2027-Jan-18 00:37",
            "epoch_date_close_approach": 1800232620000,
            "relative_velocity": {
                "kilometers_per_second": "8.1449947418",
                "kilometers_per_hour": "29321.9810705701",
                "miles_per_hour": "18219.5387379884"
            },
            "miss_distance": {
                "astronomical": "0.2733296837",
                "lunar": "106.3252469593",
                "kilometers": "40889538.489293719",
                "miles": "25407581.0520585622"
            },
            "orbiting_body": "Earth"
        }
    ],
    "orbital_data": {
        "orbit_id": "9",
        "orbit_determination_date": "2017-04-06 08:42:42",
        "first_observation_date": "2014-01-24",
        "last_observation_date": "2014-02-20",
        "data_arc_in_days": 27,
        "observations_used": 21,
        "orbit_uncertainty": "7",
        "minimum_orbit_intersection": ".155561",
        "jupiter_tisserand_invariant": "3.499",
        "epoch_osculation": "2459000.5",
        "eccentricity": ".4866241462962921",
        "semi_major_axis": "2.198015107307128",
        "inclination": "4.938195861897995",
        "ascending_node_longitude": "325.0978159434698",
        "orbital_period": "1190.267119146002",
        "perihelion_distance": "1.128407882167444",
        "perihelion_argument": "139.8382535199016",
        "aphelion_distance": "3.267622332446812",
        "perihelion_time": "2459041.982277059986",
        "mean_anomaly": "347.4535560116038",
        "mean_motion": ".3024531167913758",
        "equinox": "J2000",
        "orbit_class": {
            "orbit_class_type": "AMO",
            "orbit_class_description": "Near-Earth asteroid orbits similar to that of 1221 Amor",
            "orbit_class_range": "1.017 AU < q (perihelion) < 1.3 AU"
        }
    },
    "is_sentry_object": false
}